[{"OBJECT_NAME":"STARLINK-35147","OBJECT_ID":"2025-210R","EPOCH":"2026-03-09T21:37:29.317728","MEAN_MOTION":15.3022131,"ECCENTRICITY":8.593e-5,"INCLINATION":53.1607,"RA_OF_ASC_NODE":306.0834,"ARG_OF_PERICENTER":122.8063,"MEAN_ANOMALY":237.3021,"EPHEMERIS_TYPE":0,"CLASSIFICATION_TYPE":"U","NORAD_CAT_ID":65637,"ELEMENT_SET_NO":999,"REV_AT_EPOCH":2776,"BSTAR":0.0011987182,"MEAN_MOTION_DOT":0.00035336,"MEAN_MOTION_DDOT":0},{"OBJECT_NAME":"ELECTRON KICK STAGE R\/B","OBJECT_ID":"2024-077D","EPOCH":"2026-03-09T23:22:03.772128","MEAN_MOTION":14.57371822,"ECCENTRICITY":0.03475139,"INCLINATION":97.3266,"RA_OF_ASC_NODE":78.5056,"ARG_OF_PERICENTER":202.0113,"MEAN_ANOMALY":156.5853,"EPHEMERIS_TYPE":0,"CLASSIFICATION_TYPE":"U","NORAD_CAT_ID":59590,"ELEMENT_SET_NO":999,"REV_AT_EPOCH":9944,"BSTAR":0.00037103128,"MEAN_MOTION_DOT":3.845e-5,"MEAN_MOTION_DDOT":0}]
